RADARSAT-2              
1 32382U 07061A   26201.97367855  .00000069  00000+0  43743-4 0  9992
2 32382  98.5790 208.4240 0001331  87.0662 273.0672 14.29984256970783
